1999 CH130,e,3.828,91.37096,36.35159,2.8216624,0,0.1307527,356.3707,1/22/1999,2000.0,0,0
1999 CL130,e,2.33412,50.92205,256.36595,2.4055042,0,0.1213197,175.20491,1/22/1999,2000.0,0,0
1999 CP130,e,6.48637,326.28769,162.63051,2.5476099,0,0.1356481,355.52708,1/22/1999,2000.0,0,0
1999 CR130,e,4.06532,103.72189,26.5059,2.1980378,0,0.1104283,354.41824,1/22/1999,2000.0,0,0
1999 DY2,e,7.63887,352.43305,161.02037,2.0500329,0,0.4648488,355.86709,2/11/1999,2000.0,21.5,0.15
1999 DJ4,e,9.06159,19.93571,197.52842,1.8120702,0,0.4729113,335.11811,2/11/1999,2000.0,17.8,0.15
1999 DB7,e,10.85234,157.72866,29.71372,1.2077379,0,0.1961497,329.82669,2/11/1999,2000.0,19.8,0.15
